[{"OBJECT_NAME":"STARLINK-31024","OBJECT_ID":"2024-011X","EPOCH":"2025-12-25T00:06:47.720736","MEAN_MOTION":15.3018426,"ECCENTRICITY":0.00015848,"INCLINATION":53.1613,"RA_OF_ASC_NODE":358.6083,"ARG_OF_PERICENTER":86.8843,"MEAN_ANOMALY":273.2339,"EPHEMERIS_TYPE":0,"CLASSIFICATION_TYPE":"U","NORAD_CAT_ID":58786,"ELEMENT_SET_NO":999,"REV_AT_EPOCH":10886,"BSTAR":-2.8823121e-5,"MEAN_MOTION_DOT":-1.212e-5,"MEAN_MOTION_DDOT":0},{"OBJECT_NAME":"STARLINK-31189","OBJECT_ID":"2024-012A","EPOCH":"2025-12-24T23:24:26.387424","MEAN_MOTION":15.2757145,"ECCENTRICITY":0.00013344,"INCLINATION":43.0028,"RA_OF_ASC_NODE":226.835,"ARG_OF_PERICENTER":263.4248,"MEAN_ANOMALY":96.6452,"EPHEMERIS_TYPE":0,"CLASSIFICATION_TYPE":"U","NORAD_CAT_ID":58787,"ELEMENT_SET_NO":999,"REV_AT_EPOCH":10981,"BSTAR":4.3681715e-5,"MEAN_MOTION_DOT":9.4e-6,"MEAN_MOTION_DDOT":0},{"OBJECT_NAME":"STARLINK-31185","OBJECT_ID":"2024-012B","EPOCH":"2025-12-25T00:45:50.972544","MEAN_MOTION":15.27574944,"ECCENTRICITY":0.00015181,"INCLINATION":43.003,"RA_OF_ASC_NODE":227.2513,"ARG_OF_PERICENTER":263.0121,"MEAN_ANOMALY":97.0558,"EPHEMERIS_TYPE":0,"CLASSIFICATION_TYPE":"U","NORAD_CAT_ID":58788,"ELEMENT_SET_NO":999,"REV_AT_EPOCH":10981,"BSTAR":-1.387275e-6,"MEAN_MOTION_DOT":-3.0e-6,"MEAN_MOTION_DDOT":0},{"OBJECT_NAME":"STARLINK-31166","OBJECT_ID":"2024-012C","EPOCH":"2025-12-24T23:48:29.105856","MEAN_MOTION":15.27578529,"ECCENTRICITY":0.0001305,"INCLINATION":43.0016,"RA_OF_ASC_NODE":226.95,"ARG_OF_PERICENTER":265.485,"MEAN_ANOMALY":94.5853,"EPHEMERIS_TYPE":0,"CLASSIFICATION_TYPE":"U","NORAD_CAT_ID":58789,"ELEMENT_SET_NO":999,"REV_AT_EPOCH":10981,"BSTAR":-2.122555e-6,"MEAN_MOTION_DOT":-3.2e-6,"MEAN_MOTION_DDOT":0},{"OBJECT_NAME":"STARLINK-31187","OBJECT_ID":"2024-012D","EPOCH":"2025-12-25T00:44:00.211200","MEAN_MOTION":15.2757087,"ECCENTRICITY":0.00011461,"INCLINATION":43.002,"RA_OF_ASC_NODE":227.2455,"ARG_OF_PERICENTER":279.2481,"MEAN_ANOMALY":80.8241,"EPHEMERIS_TYPE":0,"CLASSIFICATION_TYPE":"U","NORAD_CAT_ID":58790,"ELEMENT_SET_NO":999,"REV_AT_EPOCH":10981,"BSTAR":7.7624012e-5,"MEAN_MOTION_DOT":1.874e-5,"MEAN_MOTION_DDOT":0},{"OBJECT_NAME":"STARLINK-31162","OBJECT_ID":"2024-012E","EPOCH":"2025-12-24T23:46:38.751456","MEAN_MOTION":15.27570907,"ECCENTRICITY":9.611e-5,"INCLINATION":43.0001,"RA_OF_ASC_NODE":226.9519,"ARG_OF_PERICENTER":288.1779,"MEAN_ANOMALY":71.8968,"EPHEMERIS_TYPE":0,"CLASSIFICATION_TYPE":"U","NORAD_CAT_ID":58791,"ELEMENT_SET_NO":999,"REV_AT_EPOCH":10981,"BSTAR":3.2571593e-5,"MEAN_MOTION_DOT":6.34e-6,"MEAN_MOTION_DDOT":0},{"OBJECT_NAME":"STARLINK-31184","OBJECT_ID":"2024-012G","EPOCH":"2025-12-25T01:13:24.589920","MEAN_MOTION":15.2753086,"ECCENTRICITY":6.48e-5,"INCLINATION":42.9999,"RA_OF_ASC_NODE":226.5376,"ARG_OF_PERICENTER":252.7109,"MEAN_ANOMALY":107.3672,"EPHEMERIS_TYPE":0,"CLASSIFICATION_TYPE":"U","NORAD_CAT_ID":58793,"ELEMENT_SET_NO":999,"REV_AT_EPOCH":10982,"BSTAR":0.00039243469,"MEAN_MOTION_DOT":0.00010536,"MEAN_MOTION_DDOT":0},{"OBJECT_NAME":"STARLINK-31192","OBJECT_ID":"2024-012H","EPOCH":"2025-12-25T00:40:18.027552","MEAN_MOTION":15.27570077,"ECCENTRICITY":0.00011485,"INCLINATION":43.0021,"RA_OF_ASC_NODE":227.2207,"ARG_OF_PERICENTER":259.9693,"MEAN_ANOMALY":100.1029,"EPHEMERIS_TYPE":0,"CLASSIFICATION_TYPE":"U","NORAD_CAT_ID":58794,"ELEMENT_SET_NO":999,"REV_AT_EPOCH":10981,"BSTAR":4.9780291e-5,"MEAN_MOTION_DOT":1.108e-5,"MEAN_MOTION_DDOT":0},{"OBJECT_NAME":"STARLINK-31161","OBJECT_ID":"2024-012J","EPOCH":"2025-12-25T16:58:39.684000","MEAN_MOTION":15.27576103,"ECCENTRICITY":0.0001064,"INCLINATION":43.0004,"RA_OF_ASC_NODE":222.8637,"ARG_OF_PERICENTER":275.4528,"MEAN_ANOMALY":84.6202,"EPHEMERIS_TYPE":0,"CLASSIFICATION_TYPE":"U","NORAD_CAT_ID":58795,"ELEMENT_SET_NO":999,"REV_AT_EPOCH":10992,"BSTAR":3.3176e-6,"MEAN_MOTION_DOT":-1.71e-6,"MEAN_MOTION_DDOT":0},{"OBJECT_NAME":"STARLINK-31195","OBJECT_ID":"2024-012K","EPOCH":"2025-12-24T21:43:06.854016","MEAN_MOTION":15.27569615,"ECCENTRICITY":0.0001217,"INCLINATION":43.0035,"RA_OF_ASC_NODE":228.0211,"ARG_OF_PERICENTER":266.0551,"MEAN_ANOMALY":94.0162,"EPHEMERIS_TYPE":0,"CLASSIFICATION_TYPE":"U","NORAD_CAT_ID":58796,"ELEMENT_SET_NO":999,"REV_AT_EPOCH":10979,"BSTAR":-2.1757469e-5,"MEAN_MOTION_DOT":-8.61e-6,"MEAN_MOTION_DDOT":0},{"OBJECT_NAME":"STARLINK-31193","OBJECT_ID":"2024-012L","EPOCH":"2025-12-24T23:55:53.137920","MEAN_MOTION":15.27583917,"ECCENTRICITY":9.294e-5,"INCLINATION":43.0013,"RA_OF_ASC_NODE":226.9902,"ARG_OF_PERICENTER":282.7549,"MEAN_ANOMALY":77.3199,"EPHEMERIS_TYPE":0,"CLASSIFICATION_TYPE":"U","NORAD_CAT_ID":58797,"ELEMENT_SET_NO":999,"REV_AT_EPOCH":10981,"BSTAR":0.00013230371,"MEAN_MOTION_DOT":3.381e-5,"MEAN_MOTION_DDOT":0},{"OBJECT_NAME":"STARLINK-31168","OBJECT_ID":"2024-012M","EPOCH":"2025-12-25T15:43:00.616800","MEAN_MOTION":15.275743,"ECCENTRICITY":0.0001339,"INCLINATION":43.0004,"RA_OF_ASC_NODE":223.3267,"ARG_OF_PERICENTER":271.8223,"MEAN_ANOMALY":88.2475,"EPHEMERIS_TYPE":0,"CLASSIFICATION_TYPE":"U","NORAD_CAT_ID":58798,"ELEMENT_SET_NO":999,"REV_AT_EPOCH":10991,"BSTAR":4.3457e-6,"MEAN_MOTION_DOT":-1.43e-6,"MEAN_MOTION_DDOT":0},{"OBJECT_NAME":"STARLINK-31191","OBJECT_ID":"2024-012P","EPOCH":"2025-12-25T01:07:50.981376","MEAN_MOTION":15.2758975,"ECCENTRICITY":0.00021628,"INCLINATION":42.9999,"RA_OF_ASC_NODE":226.5075,"ARG_OF_PERICENTER":274.7937,"MEAN_ANOMALY":85.2668,"EPHEMERIS_TYPE":0,"CLASSIFICATION_TYPE":"U","NORAD_CAT_ID":58800,"ELEMENT_SET_NO":999,"REV_AT_EPOCH":10982,"BSTAR":0.00024028451,"MEAN_MOTION_DOT":6.358e-5,"MEAN_MOTION_DDOT":0},{"OBJECT_NAME":"STARLINK-31170","OBJECT_ID":"2024-012Q","EPOCH":"2025-12-25T00:10:41.348928","MEAN_MOTION":15.27573056,"ECCENTRICITY":0.00010975,"INCLINATION":43.0017,"RA_OF_ASC_NODE":227.067,"ARG_OF_PERICENTER":274.1802,"MEAN_ANOMALY":85.8924,"EPHEMERIS_TYPE":0,"CLASSIFICATION_TYPE":"U","NORAD_CAT_ID":58801,"ELEMENT_SET_NO":999,"REV_AT_EPOCH":10981,"BSTAR":7.7981265e-5,"MEAN_MOTION_DOT":1.884e-5,"MEAN_MOTION_DDOT":0},{"OBJECT_NAME":"STARLINK-31141","OBJECT_ID":"2024-012S","EPOCH":"2025-12-25T00:25:29.778528","MEAN_MOTION":15.2758431,"ECCENTRICITY":0.00014047,"INCLINATION":42.9993,"RA_OF_ASC_NODE":227.1456,"ARG_OF_PERICENTER":260.2127,"MEAN_ANOMALY":99.8566,"EPHEMERIS_TYPE":0,"CLASSIFICATION_TYPE":"U","NORAD_CAT_ID":58803,"ELEMENT_SET_NO":999,"REV_AT_EPOCH":10981,"BSTAR":0.00019475991,"MEAN_MOTION_DOT":5.102e-5,"MEAN_MOTION_DDOT":0},{"OBJECT_NAME":"STARLINK-31188","OBJECT_ID":"2024-012T","EPOCH":"2025-12-25T00:16:13.616544","MEAN_MOTION":15.27606143,"ECCENTRICITY":0.00010932,"INCLINATION":42.9987,"RA_OF_ASC_NODE":227.0973,"ARG_OF_PERICENTER":259.4658,"MEAN_ANOMALY":100.6071,"EPHEMERIS_TYPE":0,"CLASSIFICATION_TYPE":"U","NORAD_CAT_ID":58804,"ELEMENT_SET_NO":999,"REV_AT_EPOCH":10981,"BSTAR":-0.00017117465,"MEAN_MOTION_DOT":-4.973e-5,"MEAN_MOTION_DDOT":0}]
