STARLINK-31024          
1 58786U 24011X   25359.00471899 -.00001212  00000+0 -28823-4 0  9998
2 58786  53.1613 358.6083 0001584  86.8843 273.2339 15.30184260108865
STARLINK-31189          
1 58787U 24012A   25358.97530541  .00000940  00000+0  43682-4 0  9990
2 58787  43.0028 226.8350 0001334 263.4248  96.6452 15.27571450109818
STARLINK-31185          
1 58788U 24012B   25359.03183996 -.00000300  00000+0 -13873-5 0  9999
2 58788  43.0030 227.2513 0001518 263.0121  97.0558 15.27574944109811
STARLINK-31166          
1 58789U 24012C   25358.99200354 -.00000320  00000+0 -21226-5 0  9995
2 58789  43.0016 226.9500 0001305 265.4850  94.5853 15.27578529109810
STARLINK-31187          
1 58790U 24012D   25359.03055800  .00001874  00000+0  77624-4 0  9992
2 58790  43.0020 227.2455 0001146 279.2481  80.8241 15.27570870109816
STARLINK-31162          
1 58791U 24012E   25358.99072629  .00000634  00000+0  32572-4 0  9991
2 58791  43.0001 226.9519 0000961 288.1779  71.8968 15.27570907109813
STARLINK-31184          
1 58793U 24012G   25359.05097905  .00010536  00000+0  39243-3 0  9998
2 58793  42.9999 226.5376 0000648 252.7109 107.3672 15.27530860109824
STARLINK-31192          
1 58794U 24012H   25359.02798643  .00001108  00000+0  49780-4 0  9996
2 58794  43.0021 227.2207 0001148 259.9693 100.1029 15.27570077109817
STARLINK-31161          
1 58795U 24012J   25359.70740375 -.00000171  00000+0  33176-5 0  9994
2 58795  43.0004 222.8637 0001064 275.4528  84.6202 15.27576103109921
STARLINK-31195          
1 58796U 24012K   25358.90494044 -.00000861  00000+0 -21757-4 0  9993
2 58796  43.0035 228.0211 0001217 266.0551  94.0162 15.27569615109799
STARLINK-31193          
1 58797U 24012L   25358.99714280  .00003381  00000+0  13230-3 0  9994
2 58797  43.0013 226.9902 0000929 282.7549  77.3199 15.27583917109819
STARLINK-31168          
1 58798U 24012M   25359.65486825 -.00000143  00000+0  43457-5 0  9990
2 58798  43.0004 223.3267 0001339 271.8223  88.2475 15.27574300109914
STARLINK-31191          
1 58800U 24012P   25359.04711784  .00006358  00000+0  24028-3 0  9996
2 58800  42.9999 226.5075 0002162 274.7937  85.2668 15.27589750109826
STARLINK-31170          
1 58801U 24012Q   25359.00742302  .00001884  00000+0  77981-4 0  9999
2 58801  43.0017 227.0670 0001097 274.1802  85.8924 15.27573056109810
STARLINK-31141          
1 58803U 24012S   25359.01770577  .00005102  00000+0  19476-3 0  9998
2 58803  42.9993 227.1456 0001404 260.2127  99.8566 15.27584310109816
STARLINK-31188          
1 58804U 24012T   25359.01126871 -.00004973  00000+0 -17117-3 0  9998
2 58804  42.9987 227.0973 0001093 259.4658 100.6071 15.27606143109817
